<?xml version="1.0" encoding="UTF-8"?>
<gpx version="1.1" creator="Apple Watch">
  <trk>
    <name>Coral Beach open water</name>
    <trkseg>
      <trkpt lat="29.5030" lon="34.9180"><time>2026-08-12T04:30:00Z</time></trkpt>
      <trkpt lat="29.5046" lon="34.9168"><time>2026-08-12T04:33:00Z</time></trkpt>
      <trkpt lat="29.5062" lon="34.9156"><time>2026-08-12T04:36:00Z</time></trkpt>
      <trkpt lat="29.5078" lon="34.9146"><time>2026-08-12T04:39:00Z</time></trkpt>
      <trkpt lat="29.5060" lon="34.9158"><time>2026-08-12T04:42:00Z</time></trkpt>
      <trkpt lat="29.5042" lon="34.9170"><time>2026-08-12T04:45:00Z</time></trkpt>
      <trkpt lat="29.5031" lon="34.9181"><time>2026-08-12T04:48:00Z</time></trkpt>
    </trkseg>
  </trk>
</gpx>
